NORAD_CAT_ID,OBJECT_NAME,OBJECT_TYPE,EPOCH,MEAN_MOTION,ECCENTRICITY,INCLINATION,RA_OF_ASC_NODE,ARG_OF_PERICENTER,MEAN_ANOMALY,BSTAR,MEAN_MOTION_DOT,MEAN_MOTION_DDOT,TLE_LINE0,TLE_LINE1,TLE_LINE2,SEMIMAJOR_AXIS,PERIOD,APOGEE,PERIGEE,DECAYED
53532.0,STARLINK-4483,PAYLOAD,2023-11-21 03:25:09,15.08840128,0.0001621,53.2187,242.999,101.2045,258.9129,2.9309e-05,1.78e-06,0.0,0 STARLINK-4483,1 53532U 22101F   23325.14247666  .00000178  00000-0  29309-4 0  9998,2 53532  53.2187 242.9990 0001621 101.2045 258.9129 15.08840128 69428,6917.88,95.438,540.866,538.624,0.0
53532.0,STARLINK-4483,PAYLOAD,2023-11-21 11:22:06,15.08834958,0.0001432,53.2173,241.5094,88.4636,271.6521,-5.4041e-06,-3.74e-06,0.0,0 STARLINK-4483,1 53532U 22101F   23325.47368192 -.00000374  00000-0 -54041-5 0  9994,2 53532  53.2173 241.5094 0001432  88.4636 271.6521 15.08834958 69472,6917.896,95.438,540.751,538.77,0.0
53532.0,STARLINK-4483,PAYLOAD,2023-11-22 00:05:11,15.08839483,0.0001488,53.2172,239.1302,84.029,276.0872,2.1321e-05,5.1e-07,0.0,0 STARLINK-4483,1 53532U 22101F   23326.00359967  .00000051  00000-0  21321-4 0  9998,2 53532  53.2172 239.1302 0001488  84.0290 276.0872 15.08839483 69550,6917.882,95.438,540.776,538.718,0.0
53532.0,STARLINK-4483,PAYLOAD,2023-11-23 01:31:20,15.08850455,0.0001412,53.217,234.3726,82.7659,277.3493,0.00010976,1.46e-05,0.0,0 STARLINK-4483,1 53532U 22101F   23327.06343199  .00001460  00000-0  10976-3 0  9993,2 53532  53.2170 234.3726 0001412  82.7659 277.3493 15.08850455 69719,6917.848,95.437,540.69,538.737,0.0
53532.0,STARLINK-4483,PAYLOAD,2023-11-23 17:25:13,15.08829841,0.0001408,53.2173,231.3993,89.2014,270.914,2.6872e-05,1.4e-06,0.0,0 STARLINK-4483,1 53532U 22101F   23327.72584973  .00000140  00000-0  26872-4 0  9990,2 53532  53.2173 231.3993 0001408  89.2014 270.9140 15.08829841 69811,6917.911,95.438,540.75,538.802,0.0
53532.0,STARLINK-4483,PAYLOAD,2023-11-23 22:11:22,15.08829225,0.0001371,53.2174,230.5092,88.8942,271.2207,-5.4048e-05,-1.148e-05,0.0,0 STARLINK-4483,1 53532U 22101F   23327.92456527 -.00001148  00000-0 -54048-4 0  9992,2 53532  53.2174 230.5092 0001371  88.8942 271.2207 15.08829225 69844,6917.913,95.438,540.727,538.83,0.0
53532.0,STARLINK-4483,PAYLOAD,2023-11-24 02:57:31,15.08836257,0.0001446,53.2168,229.6152,102.5182,257.5972,2.1129e-05,4.8e-07,0.0,0 STARLINK-4483,1 53532U 22101F   23328.12328378  .00000048  00000-0  21129-4 0  9997,2 53532  53.2168 229.6152 0001446 102.5182 257.5972 15.08836257 69878,6917.892,95.438,540.757,538.757,0.0
53532.0,STARLINK-4483,PAYLOAD,2023-11-24 22:02:09,15.08837476,0.0001376,53.2166,226.0467,100.8789,259.2358,-2.4934e-05,-6.85e-06,0.0,0 STARLINK-4483,1 53532U 22101F   23328.91816768 -.00000685  00000-0 -24934-4 0  9995,2 53532  53.2166 226.0467 0001376 100.8789 259.2358 15.08837476 69996,6917.888,95.438,540.705,538.801,0.0
53532.0,STARLINK-4483,PAYLOAD,2023-11-24 23:37:33,15.08834187,0.000144,53.2171,225.7502,87.7831,272.3326,0.00019634,2.838e-05,0.0,0 STARLINK-4483,1 53532U 22101F   23328.98441049  .00002838  00000-0  19634-3 0  9998,2 53532  53.2171 225.7502 0001440  87.7831 272.3326 15.08834187 70002,6917.898,95.438,540.759,538.767,0.0
53532.0,STARLINK-4483,PAYLOAD,2023-11-25 21:52:56,15.0885193,0.0001748,53.2161,221.5921,49.3618,310.7526,0.00049013,7.524e-05,0.0,0 STARLINK-4483,1 53532U 22101F   23329.91176653  .00007524  00000-0  49013-3 0  9999,2 53532  53.2161 221.5921 0001748  49.3618 310.7526 15.08851930 70147,6917.844,95.437,540.918,538.5,0.0
53532.0,STARLINK-4483,PAYLOAD,2023-11-25 23:28:19,15.0886411,0.0001306,53.2167,221.2883,88.8105,271.3037,0.00064721,0.00010034,0.0,0 STARLINK-4483,1 53532U 22101F   23329.97800154  .00010034  00000-0  64721-3 0  9998,2 53532  53.2167 221.2883 0001306  88.8105 271.3037 15.08864110 70150,6917.807,95.436,540.575,538.768,0.0
53532.0,STARLINK-4483,PAYLOAD,2023-11-26 20:08:20,15.0884198,0.0001293,53.2155,217.4278,79.3026,280.8112,4.1543e-05,3.73e-06,0.0,0 STARLINK-4483,1 53532U 22101F   23330.83912802  .00000373  00000-0  41543-4 0  9992,2 53532  53.2155 217.4278 0001293  79.3026 280.8112 15.08841980 70287,6917.874,95.437,540.634,538.845,0.0
53532.0,STARLINK-4483,PAYLOAD,2023-11-26 21:43:43,15.08839846,0.0001485,53.216,217.1255,108.645,251.4703,-1.891e-05,-5.89e-06,0.0,0 STARLINK-4483,1 53532U 22101F   23330.90536674 -.00000589  00000-0 -18910-4 0  9992,2 53532  53.2160 217.1255 0001485 108.6450 251.4703 15.08839846 70294,6917.881,95.438,540.773,538.719,0.0
53532.0,STARLINK-4483,PAYLOAD,2023-11-27 02:29:53,15.08838412,0.0001475,53.2162,216.2333,109.0172,251.0979,-9.5374e-06,-4.4e-06,0.0,0 STARLINK-4483,1 53532U 22101F   23331.10408823 -.00000440  00000-0 -95374-5 0  9995,2 53532  53.2162 216.2333 0001475 109.0172 251.0979 15.08838412 70321,6917.885,95.438,540.771,538.73,0.0
53532.0,STARLINK-4483,PAYLOAD,2023-11-27 21:34:30,15.08839065,0.0001409,53.2162,212.6645,106.0138,254.1009,-0.00010551,-1.967e-05,0.0,0 STARLINK-4483,1 53532U 22101F   23331.89896985 -.00001967  00000-0 -10551-3 0  9998,2 53532  53.2162 212.6645 0001409 106.0138 254.1009 15.08839065 70449,6917.883,95.438,540.723,538.774,0.0
53532.0,STARLINK-4483,PAYLOAD,2023-11-27 23:09:53,15.0884173,0.0001494,53.2162,212.3662,112.0414,248.0737,-5.8241e-05,-1.215e-05,0.0,0 STARLINK-4483,1 53532U 22101F   23331.96520778 -.00001215  00000-0 -58241-4 0  9995,2 53532  53.2162 212.3662 0001494 112.0414 248.0737 15.08841730 70456,6917.875,95.437,540.774,538.707,0.0
53532.0,STARLINK-4483,PAYLOAD,2023-11-28 21:25:18,15.08839253,0.0001502,53.2159,208.2033,112.6716,247.4435,0.00019424,2.805e-05,0.0,0 STARLINK-4483,1 53532U 22101F   23332.89257114  .00002805  00000-0  19424-3 0  9992,2 53532  53.2159 208.2033 0001502 112.6716 247.4435 15.08839253 70599,6917.883,95.438,540.787,538.709,0.0
53532.0,STARLINK-4483,PAYLOAD,2023-11-29 02:11:27,15.08843903,0.0001526,53.216,207.3106,113.8002,246.315,0.00024287,3.58e-05,0.0,0 STARLINK-4483,1 53532U 22101F   23333.09128889  .00003580  00000-0  24287-3 0  9995,2 53532  53.2160 207.3106 0001526 113.8002 246.3150 15.08843903 70622,6917.868,95.437,540.789,538.678,0.0
53532.0,STARLINK-4483,PAYLOAD,2023-11-29 19:40:42,15.08841058,0.0001568,53.2163,204.0368,112.3504,247.7655,7.5657e-05,9.16e-06,0.0,0 STARLINK-4483,1 53532U 22101F   23333.81993120  .00000916  00000-0  75657-4 0  9991,2 53532  53.2163 204.0368 0001568 112.3504 247.7655 15.08841058 70732,6917.877,95.437,540.827,538.657,0.0
53532.0,STARLINK-4483,PAYLOAD,2023-12-01 00:17:38,15.08838117,0.0001561,53.2165,198.6855,99.8255,260.2913,4.1739e-05,3.76e-06,0.0,0 STARLINK-4483,1 53532U 22101F   23335.01225584  .00000376  00000-0  41739-4 0  9991,2 53532  53.2165 198.6855 0001561  99.8255 260.2913 15.08838117 70917,6917.886,95.438,540.831,538.671,0.0
53532.0,STARLINK-4483,PAYLOAD,2023-12-01 22:33:02,15.08856337,0.0001683,53.2166,194.525,73.2527,286.865,0.00033152,4.994e-05,0.0,0 STARLINK-4483,1 53532U 22101F   23335.93961038  .00004994  00000-0  33152-3 0  9992,2 53532  53.2166 194.5250 0001683  73.2527 286.8650 15.08856337 71057,6917.83,95.437,540.86,538.531,0.0
53532.0,STARLINK-4483,PAYLOAD,2023-12-02 00:08:25,15.08858599,0.0001487,53.2159,194.228,81.158,278.9581,0.0003444,5.2e-05,0.0,0 STARLINK-4483,1 53532U 22101F   23336.00584775  .00005200  00000-0  34440-3 0  9992,2 53532  53.2159 194.2280 0001487  81.1580 278.9581 15.08858599 71066,6917.824,95.436,540.717,538.66,0.0
53532.0,STARLINK-4483,PAYLOAD,2023-12-02 19:13:03,15.08847688,0.0001671,53.2156,190.657,108.1395,251.978,0.00013652,1.886e-05,0.0,0 STARLINK-4483,1 53532U 22101F   23336.80072943  .00001886  00000-0  13652-3 0  9997,2 53532  53.2156 190.6570 0001671 108.1395 251.9780 15.08847688 71186,6917.857,95.437,540.878,538.566,0.0
53532.0,STARLINK-4483,PAYLOAD,2023-12-02 20:48:26,15.0884661,0.0001462,53.2156,190.359,99.2683,260.8475,0.00011802,1.591e-05,0.0,0 STARLINK-4483,1 53532U 22101F   23336.86696952  .00001591  00000-0  11802-3 0  9993,2 53532  53.2156 190.3590 0001462  99.2683 260.8475 15.08846610 71198,6917.86,95.437,540.737,538.714,0.0
53532.0,STARLINK-4483,PAYLOAD,2023-12-02 23:59:12,15.08845641,0.0001509,53.2159,189.7629,85.5066,274.6099,9.5357e-05,1.23e-05,0.0,0 STARLINK-4483,1 53532U 22101F   23336.99944898  .00001230  00000-0  95357-4 0  9990,2 53532  53.2159 189.7629 0001509  85.5066 274.6099 15.08845641 71212,6917.863,95.437,540.772,538.684,0.0
53532.0,STARLINK-4483,PAYLOAD,2023-12-03 19:03:50,15.08837276,0.0001688,53.2174,186.1887,104.9612,255.1567,-0.00018462,-3.225e-05,0.0,0 STARLINK-4483,1 53532U 22101F   23337.79433503 -.00003225  00000-0 -18462-3 0  9994,2 53532  53.2174 186.1887 0001688 104.9612 255.1567 15.08837276 71339,6917.889,95.438,540.921,538.586,0.0
53532.0,STARLINK-4483,PAYLOAD,2023-12-03 23:50:00,15.08833718,0.0001644,53.2164,185.3064,72.5854,287.5317,-0.0001864,-3.253e-05,0.0,0 STARLINK-4483,1 53532U 22101F   23337.99305997 -.00003253  00000-0 -18640-3 0  9990,2 53532  53.2164 185.3064 0001644  72.5854 287.5317 15.08833718 71368,6917.9,95.438,540.902,538.627,0.0
53532.0,STARLINK-4483,PAYLOAD,2023-12-04 23:40:47,15.08834977,0.0001295,53.2159,180.8471,86.148,273.9661,6.705e-05,7.79e-06,0.0,0 STARLINK-4483,1 53532U 22101F   23338.98666354  .00000779  00000-0  67050-4 0  9995,2 53532  53.2159 180.8471 0001295  86.1480 273.9661 15.08834977 71518,6917.896,95.438,540.657,538.865,0.0
53532.0,STARLINK-4483,PAYLOAD,2023-12-06 23:22:21,15.08845777,0.0001327,53.2173,171.9256,84.2328,275.8815,8.5377e-05,1.071e-05,0.0,0 STARLINK-4483,1 53532U 22101F   23340.97385526  .00001071  00000-0  85377-4 0  9994,2 53532  53.2173 171.9256 0001327  84.2328 275.8815 15.08845777 71817,6917.863,95.437,540.646,538.81,0.0
53532.0,STARLINK-4483,PAYLOAD,2023-12-08 11:56:13,15.08838409,0.000136,53.2171,165.0865,82.2589,277.8558,1.4458e-05,-5.8e-07,0.0,0 STARLINK-4483,1 53532U 22101F   23342.49738191 -.00000058  00000-0  14458-4 0  9990,2 53532  53.2171 165.0865 0001360  82.2589 277.8558 15.08838409 72045,6917.885,95.438,540.691,538.809,0.0
